NORAD_CAT_ID,OBJECT_NAME,OBJECT_TYPE,EPOCH,MEAN_MOTION,ECCENTRICITY,INCLINATION,RA_OF_ASC_NODE,ARG_OF_PERICENTER,MEAN_ANOMALY,BSTAR,MEAN_MOTION_DOT,MEAN_MOTION_DDOT,TLE_LINE0,TLE_LINE1,TLE_LINE2,SEMIMAJOR_AXIS,PERIOD,APOGEE,PERIGEE,DECAYED
27216,PSLV DEB,DEBRIS,2021-11-07 00:40:13,15.05581556,0.0030276,98.2282,338.7754,211.5214,178.9458,0.00026839999999999996,3.835e-05,0.0,0 PSLV DEB,1 27216U 01049FL  21311.02793047  .00003835  00000-0  26840-3 0  9994,2 27216  98.2282 338.7754 0030276 211.5214 178.9458 15.05581556 78471,6927.858,95.64399999999999,570.698,528.748,0.0
27216,PSLV DEB,DEBRIS,2021-11-07 20:27:03,15.0558753,0.0030302,98.2282,339.654,208.6209,326.3152,0.00022895,3.261e-05,0.0,0 PSLV DEB,1 27216U 01049FL  21311.85212572  .00003261  00000-0  22895-3 0  9993,2 27216  98.2282 339.6540 0030302 208.6209 326.3152 15.05587530 78596,6927.84,95.64399999999999,570.698,528.712,0.0
27216,PSLV DEB,DEBRIS,2021-11-08 21:44:17,15.05594796,0.0030344,98.2283,340.7771,204.8469,277.3718,0.00020674,2.938e-05,0.0,0 PSLV DEB,1 27216U 01049FL  21312.90575497  .00002938  00000-0  20674-3 0  9991,2 27216  98.2283 340.7771 0030344 204.8469 277.3718 15.05594796 78751,6927.816999999999,95.64299999999999,570.7040000000002,528.661,0.0
27216,PSLV DEB,DEBRIS,2021-11-09 00:28:51,15.055953200000001,0.0030356,98.2283,340.8989,204.4259,176.8581,0.00020849,2.964e-05,0.0,0 PSLV DEB,1 27216U 01049FL  21313.02004135  .00002964  00000-0  20849-3 0  9994,2 27216  98.2283 340.8989 0030356 204.4259 176.8581 15.05595320 78765,6927.816,95.64299999999999,570.711,528.651,0.0
27216,PSLV DEB,DEBRIS,2021-11-09 08:25:01,15.05597516,0.0030358,98.2283,341.2513,203.2145,169.2569,0.00020767,2.952e-05,0.0,0 PSLV DEB,1 27216U 01049FL  21313.35071392  .00002952  00000-0  20767-3 0  9995,2 27216  98.2283 341.2513 0030358 203.2145 169.2569 15.05597516 78824,6927.809,95.64299999999999,570.706,528.643,0.0
27216,PSLV DEB,DEBRIS,2021-11-09 21:39:56,15.05599907,0.0030394000000000003,98.2283,341.8397,201.2159,281.4425,0.00018409,2.609e-05,0.0,0 PSLV DEB,1 27216U 01049FL  21313.90273413  .00002609  00000-0  18409-3 0  9993,2 27216  98.2283 341.8397 0030394 201.2159 281.4425 15.05599907 78906,6927.802,95.64299999999999,570.7230000000002,528.61,0.0
27216,PSLV DEB,DEBRIS,2021-11-10 08:20:45,15.05602481,0.0030432,98.2284,342.3143,199.6766,173.5323,0.00018651,2.644e-05,0.0,0 PSLV DEB,1 27216U 01049FL  21314.34774648  .00002644  00000-0  18651-3 0  9996,2 27216  98.2284 342.3143 0030432 199.6766 173.5323 15.05602481 78965,6927.794,95.64299999999999,570.742,528.576,0.0
27216,PSLV DEB,DEBRIS,2021-11-11 08:16:05,15.05607255,0.0030510999999999997,98.2285,343.3769,196.1996,176.2803,0.00016762,2.369e-05,0.0,0 PSLV DEB,1 27216U 01049FL  21315.34450475  .00002369  00000-0  16762-3 0  9991,2 27216  98.2285 343.3769 0030511 196.1996 176.2803 15.05607255 79122,6927.779,95.64200000000001,570.7819999999998,528.507,0.0
27216,PSLV DEB,DEBRIS,2021-11-11 21:31:07,15.0560973,0.0030568,98.2283,343.9654,194.3397,288.8126,0.00016106,2.274e-05,0.0,0 PSLV DEB,1 27216U 01049FL  21315.89661059  .00002274  00000-0  16106-3 0  9990,2 27216  98.2283 343.9654 0030568 194.3397 288.8126 15.05609730 79203,6927.772,95.64200000000001,570.813,528.46,0.0
27216,PSLV DEB,DEBRIS,2021-11-13 01:58:03,15.05614001,0.0030674,98.2281,345.22900000000016,190.30900000000003,233.8518,0.00012511,1.75e-05,0.0,0 PSLV DEB,1 27216U 01049FL  21317.08198566  .00001750  00000-0  12511-3 0  9995,2 27216  98.2281 345.2290 0030674 190.3090 233.8518 15.05614001 79387,6927.759,95.64200000000001,570.874,528.373,0.0
27216,PSLV DEB,DEBRIS,2021-11-13 13:33:23,15.05616299,0.0030728,98.2279,345.7437,188.6246,331.1788,0.00012770000000000001,1.788e-05,0.0,0 PSLV DEB,1 27216U 01049FL  21317.56485538  .00001788  00000-0  12770-3 0  9994,2 27216  98.2279 345.7437 0030728 188.6246 331.1788 15.05616299 79455,6927.7519999999995,95.64200000000001,570.904,528.3290000000002,0.0
27216,PSLV DEB,DEBRIS,2021-11-13 21:22:23,15.05616777,0.0030759,98.2277,346.0909,187.5396,296.4925,0.00010905,1.516e-05,0.0,0 PSLV DEB,1 27216U 01049FL  21317.89054662  .00001516  00000-0  10905-3 0  9997,2 27216  98.2277 346.0909 0030759 187.5396 296.4925 15.05616777 79502,6927.75,95.64200000000001,570.924,528.306,0.0
27216,PSLV DEB,DEBRIS,2021-11-14 08:16:53,15.05619038,0.0030797,98.2278,346.5755,186.0943,239.9804,0.00011883,1.659e-05,0.0,0 PSLV DEB,1 27216U 01049FL  21318.34505969  .00001659  00000-0  11883-3 0  9993,2 27216  98.2278 346.5755 0030797 186.0943 239.9804 15.05619038 79579,6927.743,95.64200000000001,570.943,528.273,0.0
27216,PSLV DEB,DEBRIS,2021-11-14 13:26:49,15.05619858,0.0030821,98.2277,346.8049,185.3849,326.6179,0.00011664,1.627e-05,0.0,0 PSLV DEB,1 27216U 01049FL  21318.56029931  .00001627  00000-0  11664-3 0  9999,2 27216  98.2277 346.8049 0030821 185.3849 326.6179 15.05619858 79605,6927.741,95.64200000000001,570.9580000000002,528.254,0.0
27216,PSLV DEB,DEBRIS,2021-11-14 21:18:02,15.05620356,0.0030851999999999997,98.2275,347.1537,184.3187,300.2283,0.00010189,1.412e-05,0.0,0 PSLV DEB,1 27216U 01049FL  21318.88752492  .00001412  00000-0  10189-3 0  9992,2 27216  98.2275 347.1537 0030852 184.3187 300.2283 15.05620356 79651,6927.739000000001,95.64200000000001,570.9780000000002,528.231,0.0
27216,PSLV DEB,DEBRIS,2021-11-15 14:51:26,15.05623321,0.0030916999999999997,98.2271,347.9335,181.9403,305.243,0.00011337,1.58e-05,0.0,0 PSLV DEB,1 27216U 01049FL  21319.61905833  .00001580  00000-0  11337-3 0  9995,2 27216  98.2271 347.9335 0030917 181.9403 305.2430 15.05623321 79763,6927.73,95.641,571.013,528.177,0.0
27216,PSLV DEB,DEBRIS,2021-11-15 21:13:41,15.05624364,0.0030938000000000003,98.2269,348.2164,181.0871,303.9846,0.00011746,1.64e-05,0.0,0 PSLV DEB,1 27216U 01049FL  21319.88450323  .00001640  00000-0  11746-3 0  9994,2 27216  98.2269 348.2164 0030938 181.0871 303.9846 15.05624364 79806,6927.727,95.641,571.025,528.159,0.0
27216,PSLV DEB,DEBRIS,2021-11-16 08:07:45,15.05627801,0.0030971999999999996,98.2267,348.7006,179.6239,245.8769,0.00015279,2.155e-05,0.0,0 PSLV DEB,1 27216U 01049FL  21320.33871593  .00002155  00000-0  15279-3 0  9999,2 27216  98.2267 348.7006 0030972 179.6239 245.8769 15.05627801 79877,6927.7159999999985,95.641,571.038,528.125,0.0
27216,PSLV DEB,DEBRIS,2021-11-17 01:30:22,15.05628582,0.0031026,98.2263,349.4723,177.3442,210.2263,0.00012032,1.682e-05,0.0,0 PSLV DEB,1 27216U 01049FL  21321.06275821  .00001682  00000-0  12032-3 0  9990,2 27216  98.2263 349.4723 0031026 177.3442 210.2263 15.05628582 79972,6927.714,95.641,571.073,528.085,0.0
27216,PSLV DEB,DEBRIS,2021-11-17 08:03:00,15.05630129,0.0031049,98.2262,349.7629,176.4555,248.1007,0.00013130000000000002,1.842e-05,0.0,0 PSLV DEB,1 27216U 01049FL  21321.33541963  .00001842  00000-0  13130-3 0  9991,2 27216  98.2262 349.7629 0031049 176.4555 248.1007 15.05630129 80023,6927.709,95.641,571.0840000000002,528.064,0.0
27216,PSLV DEB,DEBRIS,2021-11-17 13:13:44,15.05630664,0.0031062,98.2261,349.9929,175.7791,337.6896,0.00012663,1.774e-05,0.0,0 PSLV DEB,1 27216U 01049FL  21321.55120885  .00001774  00000-0  12663-3 0  9995,2 27216  98.2261 349.9929 0031062 175.7791 337.6896 15.05630664 80053,6927.7069999999985,95.641,571.091,528.054,0.0
27216,PSLV DEB,DEBRIS,2021-11-18 07:58:27,15.05633633,0.0031096,98.2257,350.8254,173.3213,251.045,0.00013293,1.866e-05,0.0,0 PSLV DEB,1 27216U 01049FL  21322.33226020  .00001866  00000-0  13293-3 0  9992,2 27216  98.2257 350.8254 0031096 173.3213 251.0450 15.05633633 80177,6927.698,95.641,571.106,528.021,0.0
27216,PSLV DEB,DEBRIS,2021-11-18 13:09:23,15.05634178,0.003111,98.2256,351.0555,172.6214,341.3964,0.00012841,1.8e-05,0.0,0 PSLV DEB,1 27216U 01049FL  21322.54818538  .00001800  00000-0  12841-3 0  9992,2 27216  98.2256 351.0555 0031110 172.6214 341.3964 15.05634178 80205,6927.696999999999,95.641,571.114,528.01,0.0
27216,PSLV DEB,DEBRIS,2021-11-19 13:05:03,15.05638645,0.0031186,98.2252,352.1179,169.3733,345.2773,0.0001488,2.098e-05,0.0,0 PSLV DEB,1 27216U 01049FL  21323.54517483  .00002098  00000-0  14880-3 0  9993,2 27216  98.2252 352.1179 0031186 169.3733 345.2773 15.05638645 80357,6927.683000000001,95.64,571.153,527.943,0.0
27216,PSLV DEB,DEBRIS,2021-11-20 07:49:04,15.05642139,0.0031236999999999997,98.225,352.9497,166.8579,256.0974,0.00016539,2.341e-05,0.0,0 PSLV DEB,1 27216U 01049FL  21324.32574369  .00002341  00000-0  16539-3 0  9990,2 27216  98.2250 352.9497 0031237 166.8579 256.0974 15.05642139 80471,6927.672,95.64,571.177,527.8969999999998,0.0
27216,PSLV DEB,DEBRIS,2021-11-21 01:12:56,15.05645627,0.0031271000000000003,98.2249,353.7221,164.5201,225.2283,0.00017773,2.521e-05,0.0,0 PSLV DEB,1 27216U 01049FL  21325.05064997  .00002521  00000-0  17773-3 0  9993,2 27216  98.2249 353.7221 0031271 164.5201 225.2283 15.05645627 80575,6927.6619999999975,95.64,571.19,527.863,0.0
27216,PSLV DEB,DEBRIS,2021-11-21 07:44:24,15.05647219,0.0031295999999999997,98.2249,354.0118,163.6369,258.7278,0.000188,2.671e-05,0.0,0 PSLV DEB,1 27216U 01049FL  21325.32250207  .00002671  00000-0  18800-3 0  9992,2 27216  98.2249 354.0118 0031296 163.6369 258.7278 15.05647219 80626,6927.656999999997,95.64,571.202,527.841,0.0
27216,PSLV DEB,DEBRIS,2021-11-22 20:54:39,15.056555599999998,0.0031385000000000002,98.2249,355.6621,158.5477,13.5679,0.00020194,2.876e-05,0.0,0 PSLV DEB,1 27216U 01049FL  21326.87128537  .00002876  00000-0  20194-3 0  9999,2 27216  98.2249 355.6621 0031385 158.5477  13.5679 15.05655560 80859,6927.6309999999985,95.639,571.238,527.754,0.0
27216,PSLV DEB,DEBRIS,2021-11-23 08:57:50,15.05658704,0.0031386999999999995,98.2252,356.1975,156.8828,215.7464,0.00020904,2.98e-05,0.0,0 PSLV DEB,1 27216U 01049FL  21327.37350176  .00002980  00000-0  20904-3 0  9996,2 27216  98.2252 356.1975 0031387 156.8828 215.7464 15.05658704 80934,6927.621,95.639,571.23,527.743,0.0
